UNKNOWN                 
1 81052U          25358.00994507  .00010018  00000+0  26213-2 0  9998
2 81052  65.7709   0.9432 0566214 302.2984  52.4427 13.82957375601878
UNKNOWN                 
1 81069U          25358.97262588  .00003853  00000+0  51014-2 0  9995
2 81069 100.3839 260.8233 0067647  13.0050 347.2813 13.60591259517599
UNKNOWN                 
1 81111U          25360.35400527  .00016133  00000+0  35307-2 0  9997
2 81111  62.8930   6.5049 3857251 357.7478   0.9553  7.55657790272978
UNKNOWN                 
1 81123U          25355.44674648  .00000975  00000+0  95956-3 0  9995
2 81123  99.9720  77.5513 0002368  68.2161 291.9242 13.81608786607486
UNKNOWN                 
1 81134U          25362.41821673  .00000142  00000+0  49463-3 0  9992
2 81134  90.2474   4.3792 0025670 351.8634   8.2064 12.92983218464638
UNKNOWN                 
1 81161U          25351.85494684  .00001089  00000+0  11661-2 0  9995
2 81161 100.4169 194.3509 0063550 270.9508  88.4357 13.75638027556835
UNKNOWN                 
1 81219U          25362.70782507  .00000503  00000+0  45481-3 0  9997
2 81219  82.9263 354.1461 0021380 167.0534 193.1179 13.81798297609727
UNKNOWN                 
1 81228U          25361.94841616  .00007904  00000+0  24139-2 0  9997
2 81228  70.5194 242.6011 0063437 338.0784  21.7636 14.40989236628288
UNKNOWN                 
1 81254U          25344.95922807  .00004972  00000+0  32509-2 0  9992
2 81254 100.3883  46.7990 0071877  78.2189 282.7023 14.01487201612646
UNKNOWN                 
1 81279U          25363.12340780  .00001542  00000+0  60188-3 0  9998
2 81279  98.1278  61.2341 0206508 337.3501  21.8662 14.19979046464924
UNKNOWN                 
1 81301U          25362.97028914  .00000200  00000+0  26980-3 0  9990
2 81301  66.7584 257.1047 0093601 222.3364 152.6153 13.76715943608595
UNKNOWN                 
1 81311U          25362.63857112  .00000782  00000+0  16724-3 0  9994
2 81311  98.7302  60.6620 0132283  76.1908  75.2429 14.56563502641901
UNKNOWN                 
1 81317U          25354.24043344  .00000122  00000+0  31034-3 0  9991
2 81317  67.1350 160.1135 0210275  28.9242 152.9884 13.38016705589637
UNKNOWN                 
1 81323U          25360.67716260  .00026914  00000+0  34386-2 0  9995
2 81323  65.7521 349.8986 0345030 306.0245  50.9326 14.47379709115077
UNKNOWN                 
1 81329U          25362.27262231  .00001438  00000+0  54169-3 0  9999
2 81329  65.8190  94.6498 0832082  22.9457 340.6589 13.22178880580138
UNKNOWN                 
1 81343U          25362.80722319  .00009158  00000+0  65975-3 0  9996
2 81343  85.8727 190.7665 0007572 192.6099 167.4946 15.04034398456738
UNKNOWN                 
1 81359U          25363.43507218  .00001194  00000+0  11799-2 0  9998
2 81359  66.7990  12.0351 0119054 312.3967  46.7077 13.78863496607782
UNKNOWN                 
1 81366U          25361.50930002  .00000615  00000+0  24972-3 0  9998
2 81366  65.8843  37.0589 0710015  74.4410 293.3822 13.45162806 67947
UNKNOWN                 
1 81371U          25349.02062434  .00002320  00000+0  37982-3 0  9992
2 81371  98.8144  85.6265 0070126 358.1968   1.8972 14.70293799642172
UNKNOWN                 
1 81386U          25357.21895263  .00006029  00000+0  19923-2 0  9996
2 81386  71.0480 333.8064 0083954  67.7151 293.2858 14.36355118625749
UNKNOWN                 
1 81390U          25349.97583321 -.00000162  00000+0 -84958-3 0  9999
2 81390 103.1059 238.9104 0165329 138.8219 222.5446 12.35635489500496
UNKNOWN                 
1 81392U          25361.24285824  .00003584  00000+0  33732-2 0  9994
2 81392 100.4002 350.9273 0042632 353.6189  24.8119 13.81774717604183
UNKNOWN                 
1 81405U          25362.40200243  .00001863  00000+0  14216-2 0  9994
2 81405  99.4683  50.8260 0161240 182.0143 178.0383 13.88925835563975
UNKNOWN                 
1 81406U          25354.93559605  .00000948  00000+0  39727-3 0  9991
2 81406  65.8190 136.2966 0869929 316.2525  37.2633 13.12175268534754
UNKNOWN                 
1 81427U          25350.91181002  .00000774  00000+0  47360-3 0  9999
2 81427  98.7490 232.9090 0085345  26.7983 333.7558 14.06953641552359
UNKNOWN                 
1 81438U          25352.36230646  .00002865  00000+0  42152-2 0  9997
2 81438 100.3149 224.2915 0050224  53.0236 307.5481 13.54713051592702
UNKNOWN                 
1 81439U          25361.69774776  .00000369  00000+0  11620-2 0  9994
2 81439  67.1604 112.8714 0602539 194.0589 164.2991 12.62623755263783
UNKNOWN                 
1 81449U          25363.52400073  .00124038  00000+0  91787-2 0  9997
2 81449  66.7928 302.8450 0019495 107.4900 252.8368 15.02275201636078
UNKNOWN                 
1 81478U          25362.72931181  .00007554  00000+0  27098-2 0  9996
2 81478  98.9510 275.0386 0146223 312.5661 102.0718 14.28386983625223
UNKNOWN                 
1 81488U          25362.47392656  .00000099  00000+0  20594-3 0  9999
2 81488 100.0003 235.3672 0044516 321.4301 161.3055 13.56525399598761
UNKNOWN                 
1 81497U          25362.95729456  .00005302  00000+0  47731-2 0  9997
2 81497 100.3015 259.1629 0029684 334.7144  41.1181 13.84285061218544
UNKNOWN                 
1 81499U          25363.50311840  .00003926  00000+0  10816-2 0  9999
2 81499  74.0477 189.7570 0001695 281.3995  78.6974 14.47210246484847
UNKNOWN                 
1 81535U          25360.16914352  .00001073  00000+0  45264-3 0  9993
2 81535  98.2010  81.2922 0236151 109.8855 252.7932 14.13472432389294
UNKNOWN                 
1 81536U          25361.86830995  .00000605  00000+0  39547-2 0  9998
2 81536 101.9600 223.1113 0031830 270.5619 114.0342 12.55887270553711
UNKNOWN                 
1 81537U          25360.96912598  .00000505  00000+0  32089-3 0  9993
2 81537  71.0396  79.8115 0075262 132.2026 228.5515 14.07101623622464
UNKNOWN                 
1 81552U          25349.51435483  .00001096  00000+0  24303-2 0  9996
2 81552  99.0653 275.7867 0259238  11.5492 349.1424 13.18182296579614
UNKNOWN                 
1 81599U          25352.77827740  .00000356  00000+0  73912-3 0  9999
2 81599  67.2967 267.9074 0245083  79.8512 314.2725 13.31442601585883
UNKNOWN                 
1 81605U          25355.94871818  .00001814  00000+0  77035-2 0  9993
2 81605  56.4332 187.4802 0178680 142.2063 219.1566 12.81521797187383
UNKNOWN                 
1 81614U          25362.93808459  .00006376  00000+0  41114-1 0  9997
2 81614 101.8208 358.2906 0333303 117.4365 246.1008 12.37272975539987
UNKNOWN                 
1 81615U          25363.45188277  .00001374  00000+0  51403-3 0  9992
2 81615  65.8279  23.1823 0770381 128.8245 238.4192 13.34139319585098
UNKNOWN                 
1 81617U          25362.46121981  .00000367  00000+0  24308-2 0  9997
2 81617 101.2590 176.2271 0039649 213.0950 146.7644 12.57546761555089
UNKNOWN                 
1 81624U          25354.79848584  .00005219  00000+0  83184-3 0  9996
2 81624  66.9768 144.6673 0071346 230.3305 129.1510 14.71055036640891
UNKNOWN                 
1 81640U          25362.52916889  .00000168  00000+0  20932-3 0  9998
2 81640  65.8265  99.6367 0976183  71.2468 299.1822 12.57231198512061
UNKNOWN                 
1 81652U          25355.17970245  .00000611  00000+0  77035-3 0  9999
2 81652 102.1470 245.4139 0368004 340.8161 173.3701 13.44387754579785
UNKNOWN                 
1 81667U          25360.75296347  .00002746  00000+0  74446-3 0  9993
2 81667  74.0409  10.3357 0017836 297.1851  62.7489 14.48041631458679
UNKNOWN                 
1 81674U          25355.73773600  .00001058  00000+0  64220-3 0  9999
2 81674  66.8232 341.6139 0031238 226.0718 316.1419 14.09934139614981
UNKNOWN                 
1 81683U          25362.19430861  .00004329  00000+0  94659-3 0  9999
2 81683  81.2159 279.0746 0022347 252.1851 107.6908 14.57492355638116
UNKNOWN                 
1 81693U          25362.12676584  .00000189  00000+0  16216-2 0  9999
2 81693 101.0922  61.8680 0366723  55.6460 307.8727 12.25914762969654
UNKNOWN                 
1 81745U          25360.74463662  .00002794  00000+0  89466-3 0  9996
2 81745  71.0015 356.8671 0006960 227.5998 132.4550 14.40406335631763
UNKNOWN                 
1 81775U          25362.56593987  .00007860  00000+0  24342-2 0  9995
2 81775  82.9186 211.1665 0015896 202.6442 157.4051 14.41038083627555
UNKNOWN                 
1 81779U          25363.50484805  .00005646  00000+0  29151+0 0  9992
2 81779  54.5598 184.3393 1589414  69.2338 307.1105  9.34318186481883
UNKNOWN                 
1 81792U          25359.47239731  .00002712  00000+0  96589-3 0  9998
2 81792  65.8248  67.2597 0896673 276.7541  73.2371 13.10948600 81700
UNKNOWN                 
1 81812U          25358.21606734  .00000367  00000+0  28680-2 0  9993
2 81812 103.8162 271.3671 0272769 230.8575 126.7948 12.37649579541980
UNKNOWN                 
1 81816U          25353.50456143  .00000282  00000+0  26063-3 0  9991
2 81816  66.2374 279.2580 0180552 242.7865 115.4710 13.89487247610281
UNKNOWN                 
1 81819U          25345.21652586  .00001269  00000+0  89000-2 0  9997
2 81819 102.1752  82.3604 0035403 125.3291 235.1094 12.47649248547825
UNKNOWN                 
1 81824U          25362.44036959  .00007685  00000+0  26633-2 0  9998
2 81824  65.8430 294.4369 0043424 321.2910  38.5073 14.35573743626847
UNKNOWN                 
1 81833U          25362.27669991  .00000133  00000+0  45501-3 0  9994
2 81833  90.2395   3.2458 0026685 345.8080  14.2286 12.93732449454527
UNKNOWN                 
1 81844U          25361.01047116  .00003164  00000+0  11242-2 0  9997
2 81844  82.9097 270.8356 0063090 107.3603 253.4499 14.33032335624938
UNKNOWN                 
1 81845U          25360.30713341  .00003730  00000+0  41382-3 0  9997
2 81845  97.6745 186.8298 0086519 260.4586 276.6736 14.85141673651535
